STARLINK-1452           
1 45669U 20035N   24165.04150694 -.00001725  00000+0 -96929-4 0  9992
2 45669  53.0562  35.6589 0001562  95.8613 264.2554 15.06391260222653
STARLINK-1453           
1 45670U 20035P   24164.83417223 -.00001006  00000+0 -48663-4 0  9998
2 45670  53.0567   6.5907 0001632  94.2260 265.8915 15.06390205223354
STARLINK-1454           
1 45671U 20035Q   24164.91250182  .00004557  00000+0  32468-3 0  9994
2 45671  53.0548  36.2414 0001225  94.6867 265.4262 15.06393565223041
STARLINK-1455           
1 45672U 20035R   24164.78993352  .00001750  00000+0  13635-3 0  9990
2 45672  53.0553   6.7906 0001881 128.7957 231.3201 15.06396897223454
STARLINK-1456           
1 45673U 20035S   24165.05993461  .00002732  00000+0  20227-3 0  9999
2 45673  53.0550  35.5814 0001159 100.4071 259.7048 15.06396953222671
STARLINK-1457           
1 45674U 20035T   24164.86826152 -.00009006  00000+0 -58655-3 0  9999
2 45674  53.0555  36.4381 0001373  90.6473 269.4673 15.06396048223027
STARLINK-1458           
1 45675U 20035U   24164.92355977  .00001184  00000+0  98376-4 0  9991
2 45675  53.0556  36.1908 0001342  93.0309 267.0834 15.06395187223028
STARLINK-1460           
1 45676U 20035V   24164.89406470 -.00002419  00000+0 -14360-3 0  9997
2 45676  53.0547  36.3239 0001451  97.1314 262.9840 15.06391427223013
STARLINK-1392           
1 45677U 20035W   24164.90512052  .00014603  00000+0  99776-3 0  9994
2 45677  53.0547  36.2751 0001455  84.3981 275.7174 15.06380488223055
STARLINK-1393           
1 45678U 20035X   24164.89867556 -.00000001  00000+0  18850-4 0  9998
2 45678  53.0550  26.3057 0001146  74.0887 286.0228 15.06394354223172
STARLINK-1394           
1 45679U 20035Y   24164.90236553  .00005896  00000+0  41443-3 0  9997
2 45679  53.0553  26.2871 0001263  93.6112 266.5022 15.06397642223197
STARLINK-1395           
1 45680U 20035Z   24164.90973310  .00004173  00000+0  29890-3 0  9997
2 45680  53.0543  26.2568 0001144 115.0363 245.0744 15.06397224223184
STARLINK-1396           
1 45681U 20035AA  24164.91015255  .00453183  00000+0  42676-2 0  9999
2 45681  53.0346 348.1244 0011152 274.4583  85.5157 15.65076677223329
STARLINK-1397           
1 45682U 20035AB  24164.84707251  .00001241  00000+0  10223-3 0  9994
2 45682  53.0556  26.5385 0001474  99.0817 261.0339 15.06395859223170
STARLINK-1399           
1 45683U 20035AC  24164.89498483  .00000482  00000+0  51228-4 0  9991
2 45683  53.0560  26.3204 0001560 117.5719 242.5429 15.06396757223191
STARLINK-1401           
1 45684U 20035AD  24164.78790460  .00015952  00000+0  52988-3 0  9991
2 45684  53.0547 348.8758 0005100  93.9278 266.2305 15.31375458223722
STARLINK-1402           
1 45685U 20035AE  24164.86679653  .00000497  00000+0  52250-4 0  9992
2 45685  53.0554  20.8653 0001523  95.5891 264.5272 15.06386107223275
