[{"OBJECT_NAME":"STARLINK-1452","OBJECT_ID":"2020-035N","EPOCH":"2024-06-13T00:59:46.199616","MEAN_MOTION":15.0639126,"ECCENTRICITY":0.0001562,"INCLINATION":53.0562,"RA_OF_ASC_NODE":35.6589,"ARG_OF_PERICENTER":95.8613,"MEAN_ANOMALY":264.2554,"EPHEMERIS_TYPE":0,"CLASSIFICATION_TYPE":"U","NORAD_CAT_ID":45669,"ELEMENT_SET_NO":999,"REV_AT_EPOCH":22265,"BSTAR":-9.6929e-5,"MEAN_MOTION_DOT":-1.725e-5,"MEAN_MOTION_DDOT":0},{"OBJECT_NAME":"STARLINK-1453","OBJECT_ID":"2020-035P","EPOCH":"2024-06-12T20:01:12.480672","MEAN_MOTION":15.06390205,"ECCENTRICITY":0.0001632,"INCLINATION":53.0567,"RA_OF_ASC_NODE":6.5907,"ARG_OF_PERICENTER":94.226,"MEAN_ANOMALY":265.8915,"EPHEMERIS_TYPE":0,"CLASSIFICATION_TYPE":"U","NORAD_CAT_ID":45670,"ELEMENT_SET_NO":999,"REV_AT_EPOCH":22335,"BSTAR":-4.8663e-5,"MEAN_MOTION_DOT":-1.006e-5,"MEAN_MOTION_DDOT":0},{"OBJECT_NAME":"STARLINK-1454","OBJECT_ID":"2020-035Q","EPOCH":"2024-06-12T21:54:00.157248","MEAN_MOTION":15.06393565,"ECCENTRICITY":0.0001225,"INCLINATION":53.0548,"RA_OF_ASC_NODE":36.2414,"ARG_OF_PERICENTER":94.6867,"MEAN_ANOMALY":265.4262,"EPHEMERIS_TYPE":0,"CLASSIFICATION_TYPE":"U","NORAD_CAT_ID":45671,"ELEMENT_SET_NO":999,"REV_AT_EPOCH":22304,"BSTAR":0.00032468,"MEAN_MOTION_DOT":4.557e-5,"MEAN_MOTION_DDOT":0},{"OBJECT_NAME":"STARLINK-1455","OBJECT_ID":"2020-035R","EPOCH":"2024-06-12T18:57:30.256128","MEAN_MOTION":15.06396897,"ECCENTRICITY":0.0001881,"INCLINATION":53.0553,"RA_OF_ASC_NODE":6.7906,"ARG_OF_PERICENTER":128.7957,"MEAN_ANOMALY":231.3201,"EPHEMERIS_TYPE":0,"CLASSIFICATION_TYPE":"U","NORAD_CAT_ID":45672,"ELEMENT_SET_NO":999,"REV_AT_EPOCH":22345,"BSTAR":0.00013635,"MEAN_MOTION_DOT":1.75e-5,"MEAN_MOTION_DDOT":0},{"OBJECT_NAME":"STARLINK-1456","OBJECT_ID":"2020-035S","EPOCH":"2024-06-13T01:26:18.350304","MEAN_MOTION":15.06396953,"ECCENTRICITY":0.0001159,"INCLINATION":53.055,"RA_OF_ASC_NODE":35.5814,"ARG_OF_PERICENTER":100.4071,"MEAN_ANOMALY":259.7048,"EPHEMERIS_TYPE":0,"CLASSIFICATION_TYPE":"U","NORAD_CAT_ID":45673,"ELEMENT_SET_NO":999,"REV_AT_EPOCH":22267,"BSTAR":0.00020227,"MEAN_MOTION_DOT":2.732e-5,"MEAN_MOTION_DDOT":0},{"OBJECT_NAME":"STARLINK-1457","OBJECT_ID":"2020-035T","EPOCH":"2024-06-12T20:50:17.795328","MEAN_MOTION":15.06396048,"ECCENTRICITY":0.0001373,"INCLINATION":53.0555,"RA_OF_ASC_NODE":36.4381,"ARG_OF_PERICENTER":90.6473,"MEAN_ANOMALY":269.4673,"EPHEMERIS_TYPE":0,"CLASSIFICATION_TYPE":"U","NORAD_CAT_ID":45674,"ELEMENT_SET_NO":999,"REV_AT_EPOCH":22302,"BSTAR":-0.00058655,"MEAN_MOTION_DOT":-9.006e-5,"MEAN_MOTION_DDOT":0},{"OBJECT_NAME":"STARLINK-1458","OBJECT_ID":"2020-035U","EPOCH":"2024-06-12T22:09:55.564128","MEAN_MOTION":15.06395187,"ECCENTRICITY":0.0001342,"INCLINATION":53.0556,"RA_OF_ASC_NODE":36.1908,"ARG_OF_PERICENTER":93.0309,"MEAN_ANOMALY":267.0834,"EPHEMERIS_TYPE":0,"CLASSIFICATION_TYPE":"U","NORAD_CAT_ID":45675,"ELEMENT_SET_NO":999,"REV_AT_EPOCH":22302,"BSTAR":9.8376e-5,"MEAN_MOTION_DOT":1.184e-5,"MEAN_MOTION_DDOT":0},{"OBJECT_NAME":"STARLINK-1460","OBJECT_ID":"2020-035V","EPOCH":"2024-06-12T21:27:27.190080","MEAN_MOTION":15.06391427,"ECCENTRICITY":0.0001451,"INCLINATION":53.0547,"RA_OF_ASC_NODE":36.3239,"ARG_OF_PERICENTER":97.1314,"MEAN_ANOMALY":262.984,"EPHEMERIS_TYPE":0,"CLASSIFICATION_TYPE":"U","NORAD_CAT_ID":45676,"ELEMENT_SET_NO":999,"REV_AT_EPOCH":22301,"BSTAR":-0.0001436,"MEAN_MOTION_DOT":-2.419e-5,"MEAN_MOTION_DDOT":0},{"OBJECT_NAME":"STARLINK-1392","OBJECT_ID":"2020-035W","EPOCH":"2024-06-12T21:43:22.412928","MEAN_MOTION":15.06380488,"ECCENTRICITY":0.0001455,"INCLINATION":53.0547,"RA_OF_ASC_NODE":36.2751,"ARG_OF_PERICENTER":84.3981,"MEAN_ANOMALY":275.7174,"EPHEMERIS_TYPE":0,"CLASSIFICATION_TYPE":"U","NORAD_CAT_ID":45677,"ELEMENT_SET_NO":999,"REV_AT_EPOCH":22305,"BSTAR":0.00099776,"MEAN_MOTION_DOT":0.00014603,"MEAN_MOTION_DDOT":0},{"OBJECT_NAME":"STARLINK-1393","OBJECT_ID":"2020-035X","EPOCH":"2024-06-12T21:34:05.568384","MEAN_MOTION":15.06394354,"ECCENTRICITY":0.0001146,"INCLINATION":53.055,"RA_OF_ASC_NODE":26.3057,"ARG_OF_PERICENTER":74.0887,"MEAN_ANOMALY":286.0228,"EPHEMERIS_TYPE":0,"CLASSIFICATION_TYPE":"U","NORAD_CAT_ID":45678,"ELEMENT_SET_NO":999,"REV_AT_EPOCH":22317,"BSTAR":1.885e-5,"MEAN_MOTION_DOT":-1.0e-8,"MEAN_MOTION_DDOT":0},{"OBJECT_NAME":"STARLINK-1394","OBJECT_ID":"2020-035Y","EPOCH":"2024-06-12T21:39:24.381792","MEAN_MOTION":15.06397642,"ECCENTRICITY":0.0001263,"INCLINATION":53.0553,"RA_OF_ASC_NODE":26.2871,"ARG_OF_PERICENTER":93.6112,"MEAN_ANOMALY":266.5022,"EPHEMERIS_TYPE":0,"CLASSIFICATION_TYPE":"U","NORAD_CAT_ID":45679,"ELEMENT_SET_NO":999,"REV_AT_EPOCH":22319,"BSTAR":0.00041443,"MEAN_MOTION_DOT":5.896e-5,"MEAN_MOTION_DDOT":0},{"OBJECT_NAME":"STARLINK-1395","OBJECT_ID":"2020-035Z","EPOCH":"2024-06-12T21:50:00.939840","MEAN_MOTION":15.06397224,"ECCENTRICITY":0.0001144,"INCLINATION":53.0543,"RA_OF_ASC_NODE":26.2568,"ARG_OF_PERICENTER":115.0363,"MEAN_ANOMALY":245.0744,"EPHEMERIS_TYPE":0,"CLASSIFICATION_TYPE":"U","NORAD_CAT_ID":45680,"ELEMENT_SET_NO":999,"REV_AT_EPOCH":22318,"BSTAR":0.0002989,"MEAN_MOTION_DOT":4.173e-5,"MEAN_MOTION_DDOT":0},{"OBJECT_NAME":"STARLINK-1396","OBJECT_ID":"2020-035AA","EPOCH":"2024-06-12T21:50:37.180320","MEAN_MOTION":15.65076677,"ECCENTRICITY":0.0011152,"INCLINATION":53.0346,"RA_OF_ASC_NODE":348.1244,"ARG_OF_PERICENTER":274.4583,"MEAN_ANOMALY":85.5157,"EPHEMERIS_TYPE":0,"CLASSIFICATION_TYPE":"U","NORAD_CAT_ID":45681,"ELEMENT_SET_NO":999,"REV_AT_EPOCH":22332,"BSTAR":0.0042676,"MEAN_MOTION_DOT":0.00453183,"MEAN_MOTION_DDOT":0},{"OBJECT_NAME":"STARLINK-1397","OBJECT_ID":"2020-035AB","EPOCH":"2024-06-12T20:19:47.064864","MEAN_MOTION":15.06395859,"ECCENTRICITY":0.0001474,"INCLINATION":53.0556,"RA_OF_ASC_NODE":26.5385,"ARG_OF_PERICENTER":99.0817,"MEAN_ANOMALY":261.0339,"EPHEMERIS_TYPE":0,"CLASSIFICATION_TYPE":"U","NORAD_CAT_ID":45682,"ELEMENT_SET_NO":999,"REV_AT_EPOCH":22317,"BSTAR":0.00010223,"MEAN_MOTION_DOT":1.241e-5,"MEAN_MOTION_DDOT":0},{"OBJECT_NAME":"STARLINK-1399","OBJECT_ID":"2020-035AC","EPOCH":"2024-06-12T21:28:46.689312","MEAN_MOTION":15.06396757,"ECCENTRICITY":0.000156,"INCLINATION":53.056,"RA_OF_ASC_NODE":26.3204,"ARG_OF_PERICENTER":117.5719,"MEAN_ANOMALY":242.5429,"EPHEMERIS_TYPE":0,"CLASSIFICATION_TYPE":"U","NORAD_CAT_ID":45683,"ELEMENT_SET_NO":999,"REV_AT_EPOCH":22319,"BSTAR":5.1228e-5,"MEAN_MOTION_DOT":4.82e-6,"MEAN_MOTION_DDOT":0},{"OBJECT_NAME":"STARLINK-1401","OBJECT_ID":"2020-035AD","EPOCH":"2024-06-12T18:54:34.957440","MEAN_MOTION":15.31375458,"ECCENTRICITY":0.00051,"INCLINATION":53.0547,"RA_OF_ASC_NODE":348.8758,"ARG_OF_PERICENTER":93.9278,"MEAN_ANOMALY":266.2305,"EPHEMERIS_TYPE":0,"CLASSIFICATION_TYPE":"U","NORAD_CAT_ID":45684,"ELEMENT_SET_NO":999,"REV_AT_EPOCH":22372,"BSTAR":0.00052988,"MEAN_MOTION_DOT":0.00015952,"MEAN_MOTION_DDOT":0},{"OBJECT_NAME":"STARLINK-1402","OBJECT_ID":"2020-035AE","EPOCH":"2024-06-12T20:48:11.220192","MEAN_MOTION":15.06386107,"ECCENTRICITY":0.0001523,"INCLINATION":53.0554,"RA_OF_ASC_NODE":20.8653,"ARG_OF_PERICENTER":95.5891,"MEAN_ANOMALY":264.5272,"EPHEMERIS_TYPE":0,"CLASSIFICATION_TYPE":"U","NORAD_CAT_ID":45685,"ELEMENT_SET_NO":999,"REV_AT_EPOCH":22327,"BSTAR":5.225e-5,"MEAN_MOTION_DOT":4.97e-6,"MEAN_MOTION_DDOT":0}]
